BEIDOU-2 IGSO-5         
1 37948U 11073A   26183.72937883 -.00000128  00000+0  00000+0 0  9990
2 37948  47.6496 271.3544 0114527 222.0502 141.5350  1.00270596 53296
LUCH-5A                 
1 37951U 11074B   26204.56234936 -.00000052  00000+0  00000+0 0  9996
2 37951   8.8434  73.2704 0002919  62.5670 174.9527  1.00274982 53415
BEIDOU-2 G5             
1 38091U 12008A   26204.62391990  .00000058  00000+0  00000+0 0  9996
2 38091   3.6625  69.4652 0007018 271.4470 243.7225  1.00273688 52735
BEIDOU-2 M3             
1 38250U 12018A   26204.16490683 -.00000099  00000+0  00000+0 0  9998
2 38250  55.7243 303.6615 0021121 272.1845  87.6047  1.86229793 96617
BEIDOU-2 M4             
1 38251U 12018B   26204.63422150 -.00000095  00000+0  00000+0 0  9991
2 38251  55.6237 302.8566 0012305 271.9994  87.8924  1.86229554 96624
SES-5                   
1 38652U 12036A   26204.54203148  .00000038  00000+0  00000+0 0  9996
2 38652   0.0431 324.2324 0002272 152.1642  24.9746  1.00270602 44826
BEIDOU-2 M6             
1 38775U 12050B   26201.12202765 -.00000077  00000+0  00000+0 0  9997
2 38775  56.5733  61.8055 0012726   2.2324 357.8361  1.86230986 93926
GSAT-10                 
1 38779U 12051B   26204.55748494 -.00000160  00000+0  00000+0 0  9999
2 38779   0.0709 262.3819 0007663 194.2162 128.3982  1.00272373 50463
NAVSTAR 67 (USA 239)    
1 38833U 12053A   26204.21294117 -.00000008  00000+0  00000+0 0  9994
2 38833  53.5904 142.1233 0182550  66.3747 295.5069  2.00568155100169
GSAT0103 (GALILEO-FM3)  
1 38857U 12055A   26200.15144010 -.00000035  00000+0  00000+0 0  9997
2 38857  55.8248 100.6680 0003622 312.6356  47.3724  1.70473478 85556
BEIDOU-2 G6             
1 38953U 12059A   26204.62894659 -.00000175  00000+0  00000+0 0  9990
2 38953   4.5115  73.1264 0008927 329.8199 208.8701  1.00273149 50273
LUCH-5B                 
1 38977U 12061A   26204.39520272 -.00000141  00000+0  00000+0 0  9993
2 38977  10.5601  49.5175 0003878 141.8135 235.7589  1.00270872 49974
COSMOS 2485 [GLONASS-M] 
1 39155U 13019A   26204.04299087 -.00000047  00000+0  00000+0 0  9990
2 39155  65.4401  72.4015 0022552 230.4230 129.4454  2.13103192103043
NAVSTAR 68 (USA 242)    
1 39166U 13023A   26203.08371062 -.00000025  00000+0  00000+0 0  9990
2 39166  54.4778 267.5502 0141404  51.1079 310.2126  2.00563446 96589
IRNSS-1A                
1 39199U 13034A   26203.69637116  .00000051  00000+0  00000+0 0  9998
2 39199  35.7966  63.3613 0018791 179.4799   3.3059  1.00271851 47728
NAVSTAR 69 (USA 248)    
1 39533U 14008A   26204.08273978  .00000004  00000+0  00000+0 0  9996
2 39533  53.6583 147.8555 0084019 231.5746 127.6451  2.00562163 90404
ASTRA 5B                
1 39617U 14011B   26204.54567149  .00000142  00000+0  00000+0 0  9993
2 39617   0.0610 314.4452 0002258 175.2866  31.4283  1.00272878 45038
COSMOS 2492 [GLONASS-M] 
1 39620U 14012A   26203.53259189 -.00000090  00000+0  00000+0 0  9991
2 39620  65.2744 312.7343 0010315 316.2983  43.6400  2.13103190 95994
IRNSS-1B                
1 39635U 14017A   26203.69637116  .00000145  00000+0  00000+0 0  9999
2 39635  28.8725 239.7926 0021340 191.4522 174.9685  1.00267424 45153
LUCH-5V                 
1 39727U 14023A   26204.55982495 -.00000269  00000+0  00000+0 0  9995
2 39727   5.2206  69.3649 0002390  78.5689  89.6383  1.00271514 44724
NAVSTAR 70 (USA 251)    
1 39741U 14026A   26203.86045151 -.00000112  00000+0  00000+0 0  9993
2 39741  56.4788 330.1290 0038193 325.5577  34.2000  2.00558517 89256
COSMOS 2500 [GLONASS-M] 
1 40001U 14032A   26204.17115103 -.00000089  00000+0  00000+0 0  9994
2 40001  65.2090 312.4566 0008517 191.8913 168.1090  2.13105924 94228
NAVSTAR 71 (USA 256)    
1 40105U 14045A   26202.95485964 -.00000067  00000+0  00000+0 0  9998
2 40105  55.3757  87.0796 0034731 118.5166 241.8833  2.00560807 86772
GSAT0201 (GALILEO 5)    
1 40128U 14050A   26202.91197597 -.00000055  00000+0  00000+0 0  9994
2 40128  48.8375 272.0101 1679296 180.7600 179.0021  1.85519659 78966
GSAT0202 (GALILEO 6)    
1 40129U 14050B   26203.70637764 -.00000045  00000+0  00000+0 0  9997
2 40129  48.8542 271.0635 1680734 181.4997 177.9799  1.85520638 81142
IRNSS-1C                
1 40269U 14061A   26204.15461444 -.00000164  00000+0  00000+0 0  9996
2 40269   6.6060  88.2456 0021876   6.3819 344.9692  1.00271046 43044
NAVSTAR 72 (USA 258)    
1 40294U 14068A   26204.31923838 -.00000075  00000+0  00000+0 0  9990
2 40294  57.0124  29.5642 0067458  72.5690 288.2082  2.00553866 85937
COSMOS 2501 [GLONASS-K] 
1 40315U 14075A   26202.55658060  .00000090  00000+0  00000+0 0  9994
2 40315  63.6189 189.1825 0022595 212.4587 147.4043  2.13101380 90588
NAVSTAR 73 (USA 260)    
1 40534U 15013A   26201.96718444  .00000074  00000+0  00000+0 0  9999
2 40534  53.1254 202.7533 0110322  40.4930 320.3352  2.00574219 82502
GSAT0203 (GALILEO 7)    
1 40544U 15017A   26202.23459517 -.00000108  00000+0  00000+0 0  9997
2 40544  56.7744 340.6686 0002841 253.2571 106.7061  1.70476352 69781
GSAT0204 (GALILEO 8)    
1 40545U 15017B   26204.25023221 -.00000106  00000+0  00000+0 0  9999
2 40545  56.7812 340.6325 0003029 234.2784 125.6881  1.70475959 32863
